algorithm,apogee,argOfPerigee,bStar,classificationMarking,elset_created_at,elset_created_by,dataMode,eccentricity,idElset,idOnOrbit,inclination,line1,line2,meanAnomaly,meanMotion,meanMotionDDot,meanMotionDot,origNetwork,perigee,period,raan,revNo,satNo,semiMajorAxis,source,__START_AT,__END_AT,COUNTRY,LAUNCH,LAUNCH_NUM,LAUNCH_PIECE,NORAD_CAT_ID,OBJECT_ID,OBJECT_NAME,OBJECT_NUMBER,OBJECT_TYPE,RCS_SIZE,SATNAME,SITE,satcat_current_fetch_date
SGP4,6951.981,273.7599,2.7403E-5,U,2024-01-31T15:05:14.651Z,system.ob-ingest,REAL,2.539E-4,31bd1069-067e-406b-8391-f3799ae0a064,55420,69.9998,1 55420U 23014AF  24031.51869399 +.00000234 +00000+0 +27403-4 0 99993,2 55420  69.9998 181.3134 0002539 273.7599  86.3269 14.98322515056544,86.3269,14.98322515,0.0,2.34E-6,OPS1,6948.451,96.107,181.3134,5654,55420,6950.216,18th SPCS,2024-01-31T12:26:55.160736Z,2024-02-01T10:52:47.657568Z,US,2023-01-31,14,AF,55420,2023-014AF,STARLINK-5604,55420,PAYLOAD,LARGE,STARLINK-5604,AFWTR,2024-08-21
SGP4,6572.642,179.472,0.0037005,U,2023-02-14T09:05:09.927Z,system.ob-ingest,REAL,7.25E-4,f590b00a-2c0b-4d08-8591-f9135af3b75e,55424,69.9823,1 55424U 23014AK  23044.37237465 +.18318819 +43709-5 +37005-2 0 99993,2 55424  69.9823  53.2471 0007250 179.4720 180.7030 16.31041054003158,180.703,16.31041054,4.3709E-6,0.18318819,OPS1,6563.119,88.287,53.2471,315,55424,6567.881,18th SPCS,2023-02-13T08:56:13.169760Z,"",US,2023-01-31,14,AK,55424,2023-014AK,STARLINK-5066,55424,PAYLOAD,"",STARLINK-5066,AFWTR,2024-08-21
SGP4,6938.127,269.9222,2.5211E-4,U,2024-02-01T05:05:14.925Z,system.ob-ingest,REAL,1.339E-4,94088258-13f7-442e-80e9-d40188ef6e61,55466,43.0014,1 55466U 23015T   24031.84624086 +.00003204 +00000+0 +25211-3 0 99996,2 55466  43.0014 177.9573 0001339 269.9222  90.1467 15.02541983055259,90.1467,15.02541983,0.0,3.204E-5,OPS1,6936.269,95.838,177.9573,5525,55466,6937.198,18th SPCS,2024-01-31T20:18:35.210304Z,2024-02-01T10:40:08.530752Z,US,2023-02-02,15,T,55466,2023-015T,STARLINK-5628,55466,PAYLOAD,LARGE,STARLINK-5628,AFETR,2024-08-21
SGP4,6937.968,271.1012,2.926E-5,U,2024-02-01T05:05:14.950Z,system.ob-ingest,REAL,1.113E-4,6a4364cb-96c9-44b3-adaa-e5fb6276c8df,55477,43.0026,1 55477U 23015AE  24031.77569539 +.00000192 +00000+0 +29260-4 0 99993,2 55477  43.0026 166.1407 0001113 271.1012  88.9703 15.02542820055385,88.9703,15.0254282,0.0,1.92E-6,OPS1,6936.423,95.838,166.1407,5538,55477,6937.196,18th SPCS,2024-01-31T18:37:00.081696Z,2024-02-01T10:34:17.600736Z,US,2023-02-02,15,AE,55477,2023-015AE,STARLINK-5685,55477,PAYLOAD,LARGE,STARLINK-5685,AFETR,2024-08-21
SGP4,6938.041,266.4679,1.3729E-4,U,2024-01-31T23:05:16.580Z,system.ob-ingest,REAL,1.204E-4,12fd5e78-e519-4a34-ae45-1dfa392f98ae,55479,43.0019,1 55479U 23015AG  24031.78457445 +.00001652 +00000+0 +13729-3 0 99992,2 55479  43.0019 166.2053 0001204 266.4679  93.6026 15.02539615055383,93.6026,15.02539615,0.0,1.652E-5,OPS1,6936.37,95.838,166.2053,5538,55479,6937.205,18th SPCS,2024-01-31T18:49:47.232480Z,2024-02-01T09:11:20.946912Z,US,2023-02-02,15,AG,55479,2023-015AG,STARLINK-5688,55479,PAYLOAD,LARGE,STARLINK-5688,AFETR,2024-08-21
SGP4,6937.889,256.6313,-3.0348E-4,U,2024-02-01T05:05:15.400Z,system.ob-ingest,REAL,1.071E-4,6a4f139a-42dc-4589-b439-5b6af6902998,55585,43.002,1 55585U 23020S   24031.86127721 -.00004303 +00000+0 -30348-3 0 99990,2 55585  43.0020 204.2205 0001071 256.6313 103.4410 15.02558893053567,103.441,15.02558893,0.0,-4.303E-5,OPS1,6936.403,95.837,204.2205,5356,55585,6937.146,18th SPCS,2024-01-31T20:40:14.350944Z,2024-02-01T11:01:48.496512Z,US,2023-02-12,20,S,55585,2023-020S,STARLINK-5769,55585,PAYLOAD,LARGE,STARLINK-5769,AFETR,2024-08-21
SGP4,6938.045,265.6576,-3.1494E-5,U,2024-02-01T05:05:15.418Z,system.ob-ingest,REAL,1.204E-4,d5fe6537-7ca0-4b20-9fa8-446a192c4008,55596,43.0015,1 55596U 23020AD  24031.86756340 -.00000629 +00000+0 -31494-4 0 99998,2 55596  43.0015 216.3680 0001204 265.6576  94.4128 15.02538311053426,94.4128,15.02538311,0.0,-6.29E-6,OPS1,6936.374,95.838,216.368,5342,55596,6937.209,18th SPCS,2024-01-31T20:49:17.477760Z,2024-02-01T12:46:34.477536Z,US,2023-02-12,20,AD,55596,2023-020AD,STARLINK-5729,55596,PAYLOAD,LARGE,STARLINK-5729,AFETR,2024-08-21
SGP4,6952.087,271.4027,6.8343E-5,U,2024-01-31T23:05:17.653Z,system.ob-ingest,REAL,2.768E-4,22dc7401-0698-4b75-a3da-714747544bd2,55928,69.9997,1 55928U 23037Q   24031.56758252 +.00000723 +00000+0 +68343-4 0 99992,2 55928  69.9997  81.0157 0002768 271.4027  88.6815 14.98339746048774,88.6815,14.98339746,0.0,7.23E-6,OPS1,6948.239,96.106,81.0157,4877,55928,6950.163,18th SPCS,2024-01-31T13:37:19.129728Z,2024-02-01T04:02:32.287200Z,US,2023-03-17,37,Q,55928,2023-037Q,STARLINK-5930,55928,PAYLOAD,LARGE,STARLINK-5930,AFWTR,2024-08-21
SGP4,6952.258,265.6593,1.1139E-4,U,2024-01-31T23:05:17.863Z,system.ob-ingest,REAL,2.937E-4,c1ffa98e-da76-45df-80d0-bfe353c27e9e,55955,69.9999,1 55955U 23037AT  24031.42527155 +.00001236 +00000+0 +11139-3 0 99993,2 55955  69.9999  41.5628 0002937 265.6593  94.4230 14.98322173049392,94.423,14.98322173,0.0,1.236E-5,OPS1,6948.176,96.108,41.5628,4939,55955,6950.217,18th SPCS,2024-01-31T10:12:23.461920Z,2024-02-01T03:49:52.348224Z,US,2023-03-17,37,AT,55955,2023-037AT,STARLINK-5878,55955,PAYLOAD,LARGE,STARLINK-5878,AFWTR,2024-08-21
SGP4,6938.037,271.4491,-4.5413E-5,U,2024-02-01T18:05:17.490Z,system.ob-ingest,REAL,1.192E-4,96e325c9-5f0e-4cf3-9895-173f079f2b9c,56011,43.002,1 56011U 23042AB  24031.99203558 -.00000817 +00000+0 -45413-4 0 99992,2 56011  43.0020 254.9914 0001192 271.4491  88.6214 15.02538208047575,88.6214,15.02538208,0.0,-8.17E-6,OPS1,6936.383,95.838,254.9914,4757,56011,6937.21,18th SPCS,2024-01-31T23:48:31.874112Z,2024-02-01T18:57:16.055424Z,US,2023-03-24,42,AB,56011,2023-042AB,STARLINK-5936,56011,PAYLOAD,LARGE,STARLINK-5936,AFETR,2024-08-21
SGP4,6938.09,264.1852,0.0015043,U,2024-01-31T23:05:17.675Z,system.ob-ingest,REAL,1.276E-4,5093e93d-e28a-4cc9-98ec-6cfd9851a8fa,56134,43.0034,1 56134U 23046AU  24031.91667824 +.00020178 +00000+0 +15043-2 0 99998,2 56134  43.0034 357.9240 0001276 264.1852 252.0391 15.02539857047254,252.0391,15.02539857,0.0,2.0178E-4,OPS1,6936.319,95.838,357.924,4725,56134,6937.205,18th SPCS,2024-01-31T22:00:00.999936Z,2024-02-01T02:05:40.615296Z,US,2023-03-29,46,AU,56134,2023-046AU,STARLINK-5564,56134,PAYLOAD,LARGE,STARLINK-5564,AFETR,2024-08-21
SGP4,6937.99,256.239,1.5472E-4,U,2024-01-31T23:05:17.735Z,system.ob-ingest,REAL,1.15E-4,103511d6-ba75-487c-abf8-9bdc5eec0d5a,56378,43.0035,1 56378U 23061E   24031.52884862 +.00001887 +00000+0 +15472-3 0 99998,2 56378  43.0035  51.4092 0001150 256.2390 103.8325 15.02543766041209,103.8325,15.02543766,0.0,1.887E-5,OPS1,6936.395,95.837,51.4092,4120,56378,6937.193,18th SPCS,2024-01-31T12:41:32.520768Z,2024-02-01T11:01:44.365728Z,US,2023-05-04,61,E,56378,2023-061E,STARLINK-6191,56378,PAYLOAD,LARGE,STARLINK-6191,AFETR,2024-08-21
SGP4,6952.057,268.0482,2.1155E-5,U,2024-01-31T07:05:14.821Z,system.ob-ingest,REAL,2.697E-4,77e7dfbb-c32a-4dac-ab54-f2b6a67b1f49,56492,70.0001,1 56492U 23064AW  24031.01868125 +.00000159 +00000+0 +21155-4 0 99993,2 56492  70.0001 242.5160 0002697 268.0482  92.0368 14.98333424041453,92.0368,14.98333424,0.0,1.59E-6,OPS1,6948.308,96.107,242.516,4145,56492,6950.182,18th SPCS,2024-01-31T00:26:54.060000Z,2024-02-01T00:28:55.251552Z,US,2023-05-10,64,AW,56492,2023-064AW,STARLINK-5846,56492,PAYLOAD,LARGE,STARLINK-5846,AFWTR,2024-08-21
SGP4,6937.962,267.4319,7.9311E-4,U,2024-01-31T23:05:17.855Z,system.ob-ingest,REAL,1.158E-4,62b65c10-5c3c-4cd2-906b-cfce4390e396,56529,43.0033,1 56529U 23065AC  24031.55435877 +.00010531 +00000+0 +79311-3 0 99999,2 56529  43.0033  51.4634 0001158 267.4319  92.6391 15.02554734040440,92.6391,15.02554734,0.0,1.0531E-4,OPS1,6936.356,95.837,51.4634,4044,56529,6937.159,18th SPCS,2024-01-31T13:18:16.597728Z,2024-02-01T10:02:45.702528Z,US,2023-05-14,65,AC,56529,2023-065AC,STARLINK-6307,56529,PAYLOAD,LARGE,STARLINK-6307,AFETR,2024-08-21
SGP4,6937.944,266.1763,3.8436E-4,U,2024-01-31T23:05:17.866Z,system.ob-ingest,REAL,1.115E-4,4176c01a-43eb-4e99-8f07-4039dea03399,56531,43.0045,1 56531U 23065AE  24031.55102764 +.00004994 +00000+0 +38436-3 0 99997,2 56531  43.0045  51.4417 0001115 266.1763  93.8951 15.02551019040445,93.8951,15.02551019,0.0,4.994E-5,OPS1,6936.397,95.837,51.4417,4044,56531,6937.17,18th SPCS,2024-01-31T13:13:28.788096Z,2024-02-01T00:23:35.227680Z,US,2023-05-14,65,AE,56531,2023-065AE,STARLINK-6280,56531,PAYLOAD,LARGE,STARLINK-6280,AFETR,2024-08-21
SGP4,6938.077,252.8578,-4.0944E-5,U,2024-01-31T23:05:17.921Z,system.ob-ingest,REAL,1.239E-4,82f8ef5d-41e7-4c1e-b0f3-8a65538be5f0,56704,43.0014,1 56704U 23067S   24031.60801695 -.00000757 +00000+0 -40944-4 0 99999,2 56704  43.0014 127.7194 0001239 252.8578 107.2129 15.02535703040129,107.2129,15.02535703,0.0,-7.57E-6,OPS1,6936.358,95.838,127.7194,4012,56704,6937.217,18th SPCS,2024-01-31T14:35:32.664480Z,2024-02-01T14:31:27.882912Z,US,2023-05-19,67,S,56704,2023-067S,STARLINK-30066,56704,PAYLOAD,LARGE,STARLINK-30066,AFETR,2024-08-21
SGP4,6937.889,268.277,-1.9102E-6,U,2024-02-01T05:05:15.498Z,system.ob-ingest,REAL,1.02E-4,095cbd71-ce38-45c5-8336-e19e7faee4e4,56709,43.0034,1 56709U 23067X   24031.68447639 -.00000229 +00000+0 -19102-5 0 99993,2 56709  43.0034 127.4503 0001020 268.2770  91.7955 15.02547505039877,91.7955,15.02547505,0.0,-2.29E-6,OPS1,6936.474,95.837,127.4503,3987,56709,6937.181,18th SPCS,2024-01-31T16:25:38.760096Z,2024-02-01T09:58:40.012896Z,US,2023-05-19,67,X,56709,2023-067X,STARLINK-30085,56709,PAYLOAD,LARGE,STARLINK-30085,AFETR,2024-08-21
SGP4,6952.065,260.7315,-1.4779E-6,U,2024-02-01T05:05:15.693Z,system.ob-ingest,REAL,2.71E-4,b0a2780a-9c89-4816-8488-5b5eff022442,56788,69.9994,1 56788U 23078X   24031.62207267 -.00000111 +00000+0 -14779-5 0 99992,2 56788  69.9994 101.0614 0002710 260.7315  99.3537 14.98333523038120,99.3537,14.98333523,0.0,-1.11E-6,OPS1,6948.298,96.107,101.0614,3812,56788,6950.182,18th SPCS,2024-01-31T14:55:47.078688Z,2024-02-01T11:45:32.565600Z,US,2023-05-31,78,X,56788,2023-078X,STARLINK-6336,56788,PAYLOAD,LARGE,STARLINK-6336,AFWTR,2024-08-21
